[{"OBJECT_NAME":"STARLINK-32106","OBJECT_ID":"2024-086J","EPOCH":"2026-03-09T09:10:45.482304","MEAN_MOTION":15.27572207,"ECCENTRICITY":0.00031137,"INCLINATION":43.0082,"RA_OF_ASC_NODE":53.9773,"ARG_OF_PERICENTER":282.9048,"MEAN_ANOMALY":77.1456,"EPHEMERIS_TYPE":0,"CLASSIFICATION_TYPE":"U","NORAD_CAT_ID":59690,"ELEMENT_SET_NO":999,"REV_AT_EPOCH":10415,"BSTAR":-2.1800604e-5,"MEAN_MOTION_DOT":-8.63e-6,"MEAN_MOTION_DDOT":0},{"OBJECT_NAME":"FLOCK 4G-21","OBJECT_ID":"2025-009AU","EPOCH":"2026-03-09T04:40:37.351200","MEAN_MOTION":15.28381075,"ECCENTRICITY":4.655e-5,"INCLINATION":97.4032,"RA_OF_ASC_NODE":151.1274,"ARG_OF_PERICENTER":329.5782,"MEAN_ANOMALY":30.5431,"EPHEMERIS_TYPE":0,"CLASSIFICATION_TYPE":"U","NORAD_CAT_ID":62651,"ELEMENT_SET_NO":999,"REV_AT_EPOCH":6367,"BSTAR":0.00049618643,"MEAN_MOTION_DOT":0.00013648,"MEAN_MOTION_DDOT":0}]
